NORAD_CAT_ID,OBJECT_NAME,OBJECT_TYPE,EPOCH,MEAN_MOTION,ECCENTRICITY,INCLINATION,RA_OF_ASC_NODE,ARG_OF_PERICENTER,MEAN_ANOMALY,BSTAR,MEAN_MOTION_DOT,MEAN_MOTION_DDOT,TLE_LINE0,TLE_LINE1,TLE_LINE2,SEMIMAJOR_AXIS,PERIOD,APOGEE,PERIGEE,DECAYED
49155.0,STARLINK-3060,PAYLOAD,2023-03-14 20:06:28,14.98340321,0.0002888,69.9998,124.8854,277.4546,82.6285,0.00013409,1.508e-05,0.0,0 STARLINK-3060,1 49155U 21082AB  23073.83783122  .00001508  00000-0  13409-3 0  9990,2 49155  69.9998 124.8854 0002888 277.4546  82.6285 14.98340321 84647,6950.161,96.106,574.033,570.019,0.0
49155.0,STARLINK-3060,PAYLOAD,2023-03-15 04:07:10,14.98308307,0.0002768,69.9992,124.0445,271.5506,88.5336,0.0013545,0.00016097,0.0,0 STARLINK-3060,1 49155U 21082AB  23074.17164464  .00016097  00000-0  13545-2 0  9999,2 49155  69.9992 124.0445 0002768 271.5506  88.5336 14.98308307 84692,6950.26,96.108,574.049,570.201,0.0
49155.0,STARLINK-3060,PAYLOAD,2023-03-15 12:07:48,14.98347361,0.0002942,69.9981,123.2026,268.6902,91.392,0.00018798,2.152e-05,0.0,0 STARLINK-3060,1 49155U 21082AB  23074.50542195  .00002152  00000-0  18798-3 0  9990,2 49155  69.9981 123.2026 0002942 268.6902  91.3920 14.98347361 84747,6950.139,96.106,574.049,569.959,0.0
49155.0,STARLINK-3060,PAYLOAD,2023-03-15 20:08:28,14.98341268,0.0002958,69.9992,122.3607,271.0276,89.0544,0.00019617,2.249e-05,0.0,0 STARLINK-3060,1 49155U 21082AB  23074.83922372  .00002249  00000-0  19617-3 0  9993,2 49155  69.9992 122.3607 0002958 271.0276  89.0544 14.98341268 84794,6950.158,96.106,574.079,569.967,0.0
49155.0,STARLINK-3060,PAYLOAD,2023-03-16 02:33:01,14.98329731,0.0002816,69.9998,121.6887,268.2013,91.8824,-5.1452e-05,-7.07e-06,0.0,0 STARLINK-3060,1 49155U 21082AB  23075.10626914 -.00000707  00000-0 -51452-4 0  9990,2 49155  69.9998 121.6887 0002816 268.2013  91.8824 14.98329731 84830,6950.194,96.107,574.016,570.102,0.0
49155.0,STARLINK-3060,PAYLOAD,2023-03-16 13:45:58,14.98324934,0.0002725,69.9986,120.5103,262.1728,97.9122,-1.1012e-05,-2.24e-06,0.0,0 STARLINK-3060,1 49155U 21082AB  23075.57359478 -.00000224  00000-0 -11012-4 0  9991,2 49155  69.9986 120.5103 0002725 262.1728  97.9122 14.98324934 84907,6950.209,96.107,573.967,570.18,0.0
49155.0,STARLINK-3060,PAYLOAD,2023-03-16 20:10:31,14.98325764,0.00028,69.9983,119.8354,270.6293,89.4545,-8.5757e-05,-1.116e-05,0.0,0 STARLINK-3060,1 49155U 21082AB  23075.84063681 -.00001116  00000-0 -85757-4 0  9997,2 49155  69.9983 119.8354 0002800 270.6293  89.4545 14.98325764 84949,6950.206,96.107,574.017,570.125,0.0
49155.0,STARLINK-3060,PAYLOAD,2023-03-17 10:35:43,14.98324554,0.000288,69.9984,118.3217,264.9542,95.1288,-0.00011476,-1.462e-05,0.0,0 STARLINK-3060,1 49155U 21082AB  23076.44147953 -.00001462  00000-0 -11476-3 0  9999,2 49155  69.9984 118.3217 0002880 264.9542  95.1288 14.98324554 85038,6950.21,96.107,574.076,570.073,0.0
49155.0,STARLINK-3060,PAYLOAD,2023-03-17 20:12:32,14.98326448,0.0002956,69.9982,117.311,269.1251,90.9569,-3.373e-05,-4.95e-06,0.0,0 STARLINK-3060,1 49155U 21082AB  23076.84203772 -.00000495  00000-0 -33730-4 0  9998,2 49155  69.9982 117.3110 0002956 269.1251  90.9569 14.98326448 85090,6950.204,96.107,574.123,570.014,0.0
49155.0,STARLINK-3060,PAYLOAD,2023-03-18 20:14:32,14.98331173,0.0003129,69.9973,114.7856,266.6924,93.3877,0.00012686,1.421e-05,0.0,0 STARLINK-3060,1 49155U 21082AB  23077.84343289  .00001421  00000-0  12686-3 0  9991,2 49155  69.9973 114.7856 0003129 266.6924  93.3877 14.98331173 85247,6950.189,96.107,574.229,569.88,0.0
49155.0,STARLINK-3060,PAYLOAD,2023-03-19 12:15:52,14.98337049,0.0003225,69.9971,113.1023,268.4907,91.5883,0.00030194,3.512e-05,0.0,0 STARLINK-3060,1 49155U 21082AB  23078.51102954  .00003512  00000-0  30194-3 0  9995,2 49155  69.9971 113.1023 0003225 268.4907  91.5883 14.98337049 85348,6950.171,96.107,574.278,569.795,0.0
49155.0,STARLINK-3060,PAYLOAD,2023-03-19 13:52:00,14.98338377,0.0003227,69.9971,112.9339,268.4204,91.6585,0.00032186,3.75e-05,0.0,0 STARLINK-3060,1 49155U 21082AB  23078.57778899  .00003750  00000-0  32186-3 0  9995,2 49155  69.9971 112.9339 0003227 268.4204  91.6585 14.98338377 85353,6950.167,96.106,574.275,569.789,0.0
49155.0,STARLINK-3060,PAYLOAD,2023-03-20 04:17:13,14.98334373,0.0003104,69.9975,111.4187,268.5596,91.5208,7.358e-05,7.85e-06,0.0,0 STARLINK-3060,1 49155U 21082AB  23079.17863367  .00000785  00000-0  73580-4 0  9996,2 49155  69.9975 111.4187 0003104 268.5596  91.5208 14.98334373 85444,6950.179,96.107,574.202,569.887,0.0
49155.0,STARLINK-3060,PAYLOAD,2023-03-20 12:17:53,14.9833654,0.0003119,69.9974,110.577,268.8675,91.2127,5.7776e-05,5.96e-06,0.0,0 STARLINK-3060,1 49155U 21082AB  23079.51243007  .00000596  00000-0  57776-4 0  9996,2 49155  69.9974 110.5770 0003119 268.8675  91.2127 14.98336540 85498,6950.173,96.107,574.205,569.87,0.0
49155.0,STARLINK-3060,PAYLOAD,2023-03-20 18:42:26,14.9833324,0.0003094,69.9976,109.9036,269.1698,90.9106,2.9019e-05,2.53e-06,0.0,0 STARLINK-3060,1 49155U 21082AB  23079.77947189  .00000253  00000-0  29019-4 0  9995,2 49155  69.9976 109.9036 0003094 269.1698  90.9106 14.98333240 85530,6950.183,96.107,574.198,569.897,0.0
49155.0,STARLINK-3060,PAYLOAD,2023-03-21 04:19:14,14.98336412,0.0002981,69.9978,108.8941,269.7843,90.2975,-0.00011391,-1.452e-05,0.0,0 STARLINK-3060,1 49155U 21082AB  23080.18003167 -.00001452  00000-0 -11391-3 0  9998,2 49155  69.9978 108.8941 0002981 269.7843  90.2975 14.98336412 85594,6950.173,96.107,574.11,569.966,0.0
49155.0,STARLINK-3060,PAYLOAD,2023-03-21 12:19:55,14.98331885,0.0002968,69.9977,108.0525,268.3141,91.7678,-2.909e-05,-4.4e-06,0.0,0 STARLINK-3060,1 49155U 21082AB  23080.51383202 -.00000440  00000-0 -29090-4 0  9998,2 49155  69.9977 108.0525 0002968 268.3141  91.7678 14.98331885 85645,6950.187,96.107,574.115,569.989,0.0
49155.0,STARLINK-3060,PAYLOAD,2023-03-22 04:21:15,14.98331117,0.0003004,69.9975,106.3693,264.2908,95.7908,4.4444e-05,4.37e-06,0.0,0 STARLINK-3060,1 49155U 21082AB  23081.18143040  .00000437  00000-0  44444-4 0  9990,2 49155  69.9975 106.3693 0003004 264.2908  95.7908 14.98331117 85747,6950.189,96.107,574.142,569.967,0.0
49155.0,STARLINK-3060,PAYLOAD,2023-03-22 18:46:28,14.98331981,0.0002973,69.9978,104.8537,268.9482,91.1336,8.0291e-05,8.65e-06,0.0,0 STARLINK-3060,1 49155U 21082AB  23081.78226894  .00000865  00000-0  80291-4 0  9990,2 49155  69.9978 104.8537 0002973 268.9482  91.1336 14.98331981 85836,6950.187,96.107,574.118,569.985,0.0
49155.0,STARLINK-3060,PAYLOAD,2023-03-23 04:23:16,14.98332124,0.0003039,69.9976,103.844,268.9022,91.1789,0.0001131,1.257e-05,0.0,0 STARLINK-3060,1 49155U 21082AB  23082.18282807  .00001257  00000-0  11310-3 0  9992,2 49155  69.9976 103.8440 0003039 268.9022  91.1789 14.98332124 85898,6950.186,96.107,574.163,569.939,0.0
49155.0,STARLINK-3060,PAYLOAD,2023-03-23 10:47:48,14.98334011,0.0003036,69.9976,103.1711,268.7168,91.3644,0.00011955,1.334e-05,0.0,0 STARLINK-3060,1 49155U 21082AB  23082.44986678  .00001334  00000-0  11955-3 0  9999,2 49155  69.9976 103.1711 0003036 268.7168  91.3644 14.98334011 85932,6950.18,96.107,574.156,569.935,0.0
49155.0,STARLINK-3060,PAYLOAD,2023-03-23 18:48:28,14.98334736,0.0003032,69.9976,102.3284,269.6438,90.4373,0.00010737,1.188e-05,0.0,0 STARLINK-3060,1 49155U 21082AB  23082.78366626  .00001188  00000-0  10737-3 0  9995,2 49155  69.9976 102.3284 0003032 269.6438  90.4373 14.98334736 85982,6950.178,96.107,574.151,569.936,0.0
49155.0,STARLINK-3060,PAYLOAD,2023-03-24 04:25:17,14.98337197,0.0002975,69.9978,101.3183,269.0988,90.983,0.00012251,1.369e-05,0.0,0 STARLINK-3060,1 49155U 21082AB  23083.18422584  .00001369  00000-0  12251-3 0  9990,2 49155  69.9978 101.3183 0002975 269.0988  90.9830 14.98337197 86045,6950.171,96.107,574.103,569.968,0.0
49155.0,STARLINK-3060,PAYLOAD,2023-03-24 10:49:48,14.98341404,0.0002915,69.9978,100.6449,269.2785,90.804,0.00016803,1.913e-05,0.0,0 STARLINK-3060,1 49155U 21082AB  23083.45126104  .00001913  00000-0  16803-3 0  9991,2 49155  69.9978 100.6449 0002915 269.2785  90.8040 14.98341404 86085,6950.158,96.106,574.049,569.997,0.0
49155.0,STARLINK-3060,PAYLOAD,2023-03-24 18:50:29,14.98331477,0.0002772,69.9981,99.8021,269.7848,90.2993,2.1085e-05,1.59e-06,0.0,0 STARLINK-3060,1 49155U 21082AB  23083.78506898  .00000159  00000-0  21085-4 0  9999,2 49155  69.9981  99.8021 0002772 269.7848  90.2993 14.98331477 86136,6950.188,96.107,573.98,570.127,0.0
49155.0,STARLINK-3060,PAYLOAD,2023-03-25 04:27:22,14.98284941,0.0003248,69.9977,98.7936,266.6601,93.4187,-0.0005179,-6.26e-05,0.0,0 STARLINK-3060,1 49155U 21082AB  23084.18567231 -.00006260  00000-0 -51790-3 0  9998,2 49155  69.9977  98.7936 0003248 266.6601  93.4187 14.98284941 86195,6950.332,96.11,574.455,569.94,0.0
49155.0,STARLINK-3060,PAYLOAD,2023-03-25 10:52:08,14.98113839,0.0002483,69.9982,98.1207,274.5399,85.5476,-0.002302,-0.000273,0.0,0 STARLINK-3060,1 49155U 21082AB  23084.45288019 -.00027300  00000-0 -23020-2 0  9994,2 49155  69.9982  98.1207 0002483 274.5399  85.5476 14.98113839 86233,6950.861,96.121,574.452,571.001,0.0
49155.0,STARLINK-3060,PAYLOAD,2023-03-26 04:30:09,14.97856968,0.0002602,69.9981,96.2688,261.2439,98.8426,-0.0045377,-0.00053173,0.0,0 STARLINK-3060,1 49155U 21082AB  23085.18760874 -.00053173  00000-0 -45377-2 0  9995,2 49155  69.9981  96.2688 0002602 261.2439  98.8426 14.97856968 86345,6951.656,96.137,575.33,571.712,0.0
49155.0,STARLINK-3060,PAYLOAD,2023-03-26 10:54:49,14.97831799,0.0003022,69.9979,95.5955,276.7045,83.377,-0.004439,-0.00051995,0.0,0 STARLINK-3060,1 49155U 21082AB  23085.45474460 -.00051995  00000-0 -44390-2 0  9992,2 49155  69.9979  95.5955 0003022 276.7045  83.3770 14.97831799 86382,6951.734,96.139,575.7,571.498,0.0
49155.0,STARLINK-3060,PAYLOAD,2023-03-26 17:19:30,14.97809965,0.0003152,69.9975,94.9228,271.8914,88.1884,-0.0043606,-0.00051057,0.0,0 STARLINK-3060,1 49155U 21082AB  23085.72188367 -.00051057  00000-0 -43606-2 0  9998,2 49155  69.9975  94.9228 0003152 271.8914  88.1884 14.97809965 86423,6951.802,96.14,575.858,571.475,0.0
